GLOBALSTAR M084 [+]     
1 38040U 11080A   23251.28418227 -.00000081  00000+0  12905-3 0  9991
2 38040  51.9990 220.9281 0000584  63.9831  74.7003 12.62265510540843
GLOBALSTAR M080 [+]     
1 38041U 11080B   23251.23017826 -.00000082  00000+0  12109-3 0  9994
2 38041  52.0041 222.4709 0000678  47.0349 326.6274 12.62264246540963
GLOBALSTAR M082 [+]     
1 38042U 11080C   23251.10453602 -.00000092  00000+0  63860-4 0  9999
2 38042  52.0071 178.2312 0000279 161.6083 300.8908 12.62270377541657
GLOBALSTAR M092 [+]     
1 38043U 11080D   23251.23136174 -.00000099  00000+0  28868-4 0  9992
2 38043  52.0074 268.1886 0000668  92.2603 347.0688 12.62272011540121
GLOBALSTAR M090 [+]     
1 38044U 11080E   23251.13899507 -.00000089  00000+0  82599-4 0  9998
2 38044  51.9878 172.7704 0000278  51.3586  87.7592 12.62267391541773
GLOBALSTAR M086 [+]     
1 38045U 11080F   23251.16546880 -.00000111  00000+0 -41922-4 0  9997
2 38045  51.9896 173.1889 0001158 349.1713 151.3350 12.62280320541723
GLOBALSTAR M097 [+]     
1 39072U 13005A   23251.55728921 -.00000103  00000+0  58809-5 0  9991
2 39072  52.0040  85.8859 0000446  70.4028 289.6887 12.62270539489020
GLOBALSTAR M093 [+]     
1 39073U 13005B   23251.21393927 -.00000103  00000+0  18153-5 0  9997
2 39073  51.9810  81.2703 0000317  47.2936 312.7957 12.62266449488939
